2020-07-03 00:27:00 <int-e> @metar lowI
2020-07-03 00:27:01 <lambdabot> LOWI 030020Z AUTO 26004KT 9999 FEW005 BKN007 17/16 Q1017
2020-07-03 00:27:48 <shachaf> I put my thing up: https://github.com/shachaf/mustardwatch
